[{"OBJECT_NAME":"GAOFEN-9 05","OBJECT_ID":"2020-058A","EPOCH":"2026-03-10T00:01:50.876256","MEAN_MOTION":15.30293976,"ECCENTRICITY":0.0010522,"INCLINATION":97.2228,"RA_OF_ASC_NODE":111.963,"ARG_OF_PERICENTER":91.0204,"MEAN_ANOMALY":269.2242,"EPHEMERIS_TYPE":0,"CLASSIFICATION_TYPE":"U","NORAD_CAT_ID":46232,"ELEMENT_SET_NO":999,"REV_AT_EPOCH":30843,"BSTAR":0.00025120304,"MEAN_MOTION_DOT":7.299e-5,"MEAN_MOTION_DDOT":0},{"OBJECT_NAME":"STARLINK-34071","OBJECT_ID":"2025-095W","EPOCH":"2026-03-09T14:43:10.405632","MEAN_MOTION":15.2763434,"ECCENTRICITY":0.00012893,"INCLINATION":43.0008,"RA_OF_ASC_NODE":176.8681,"ARG_OF_PERICENTER":259.3594,"MEAN_ANOMALY":100.7112,"EPHEMERIS_TYPE":0,"CLASSIFICATION_TYPE":"U","NORAD_CAT_ID":63910,"ELEMENT_SET_NO":999,"REV_AT_EPOCH":4776,"BSTAR":0.0012518852,"MEAN_MOTION_DOT":0.00034405,"MEAN_MOTION_DDOT":0}]
